{
  "type": "FeatureCollection",
  "features": [
    {
      "type": "Feature",
      "properties": {
        "norad_id": 29780,
        "name": "FENGYUN 1C DEB",
        "group": "fengyun-1c-debris",
        "lat": 45.69952286602285,
        "lon": 98.05015056393852,
        "alt_km": 788.8618037684137,
        "timestamp": "2025-12-13T10:41:26.037209+00:00",
        "meta_object_name": "FENGYUN 1C DEB",
        "meta_object_id": "1999-025BW",
        "meta_epoch": "2025-12-12T00:16:11.656128",
        "meta_mean_motion": 14.21032654,
        "meta_eccentricity": 0.00404925,
        "meta_inclination": 99.2771,
        "meta_ra_of_asc_node": 266.9031,
        "meta_arg_of_pericenter": 130.2254,
        "meta_mean_anomaly": 230.2476,
        "meta_ephemeris_type": 0,
        "meta_classification_type": "U",
        "meta_norad_cat_id": 29780,
        "meta_element_set_no": 999,
        "meta_rev_at_epoch": 97068,
        "meta_bstar": 0.0026897266,
        "meta_mean_motion_dot": 5.839e-05,
        "meta_mean_motion_ddot": 0,
        "tle_line1": "1 29780U 99025BW  25346.01124602  .00005839  00000+0  26897-2 0  9995",
        "tle_line2": "2 29780  99.2771 266.9031 0040492 130.2254 230.2476 14.21032654970688"
      },
      "geometry": {
        "type": "Point",
        "coordinates": [
          98.05015056393852,
          45.69952286602285
        ]
      }
    },
    {
      "type": "Feature",
      "properties": {
        "norad_id": 29781,
        "name": "FENGYUN 1C DEB",
        "group": "fengyun-1c-debris",
        "lat": 42.6320378607922,
        "lon": -26.626875267980974,
        "alt_km": 903.9288907564896,
        "timestamp": "2025-12-13T10:41:26.037219+00:00",
        "meta_object_name": "FENGYUN 1C DEB",
        "meta_object_id": "1999-025BX",
        "meta_epoch": "2025-12-12T22:49:26.471712",
        "meta_mean_motion": 14.05226496,
        "meta_eccentricity": 0.00718866,
        "meta_inclination": 98.8094,
        "meta_ra_of_asc_node": 341.1003,
        "meta_arg_of_pericenter": 172.5514,
        "meta_mean_anomaly": 251.553,
        "meta_ephemeris_type": 0,
        "meta_classification_type": "U",
        "meta_norad_cat_id": 29781,
        "meta_element_set_no": 999,
        "meta_rev_at_epoch": 96646,
        "meta_bstar": 0.00086805812,
        "meta_mean_motion_dot": 1.394e-05,
        "meta_mean_motion_ddot": 0,
        "tle_line1": "1 29781U 99025BX  25346.95100083  .00001394  00000+0  86806-3 0  9995",
        "tle_line2": "2 29781  98.8094 341.1003 0071886 172.5514 251.5530 14.05226496966465"
      },
      "geometry": {
        "type": "Point",
        "coordinates": [
          -26.626875267980974,
          42.6320378607922
        ]
      }
    },
    {
      "type": "Feature",
      "properties": {
        "norad_id": 29782,
        "name": "FENGYUN 1C DEB",
        "group": "fengyun-1c-debris",
        "lat": 78.49896893827315,
        "lon": -86.97630250794474,
        "alt_km": 855.8274545289387,
        "timestamp": "2025-12-13T10:41:26.037230+00:00",
        "meta_object_name": "FENGYUN 1C DEB",
        "meta_object_id": "1999-025BY",
        "meta_epoch": "2025-12-12T16:04:51.565728",
        "meta_mean_motion": 14.11662772,
        "meta_eccentricity": 0.00554997,
        "meta_inclination": 99.1002,
        "meta_ra_of_asc_node": 40.2643,
        "meta_arg_of_pericenter": 203.2488,
        "meta_mean_anomaly": 276.0128,
        "meta_ephemeris_type": 0,
        "meta_classification_type": "U",
        "meta_norad_cat_id": 29782,
        "meta_element_set_no": 999,
        "meta_rev_at_epoch": 96670,
        "meta_bstar": 0.0022251472,
        "meta_mean_motion_dot": 4.062e-05,
        "meta_mean_motion_ddot": 0,
        "tle_line1": "1 29782U 99025BY  25346.67004127  .00004062  00000+0  22251-2 0  9995",
        "tle_line2": "2 29782  99.1002  40.2643 0055499 203.2488 276.0128 14.11662772966700"
      },
      "geometry": {
        "type": "Point",
        "coordinates": [
          -86.97630250794474,
          78.49896893827315
        ]
      }
    },
    {
      "type": "Feature",
      "properties": {
        "norad_id": 29784,
        "name": "FENGYUN 1C DEB",
        "group": "fengyun-1c-debris",
        "lat": -60.33986832779452,
        "lon": -77.68133662509679,
        "alt_km": 754.353531412019,
        "timestamp": "2025-12-13T10:41:26.037240+00:00",
        "meta_object_name": "FENGYUN 1C DEB",
        "meta_object_id": "1999-025CA",
        "meta_epoch": "2025-12-13T00:59:34.138176",
        "meta_mean_motion": 14.30586128,
        "meta_eccentricity": 0.00593978,
        "meta_inclination": 98.945,
        "meta_ra_of_asc_node": 265.8472,
        "meta_arg_of_pericenter": 296.5299,
        "meta_mean_anomaly": 82.0448,
        "meta_ephemeris_type": 0,
        "meta_classification_type": "U",
        "meta_norad_cat_id": 29784,
        "meta_element_set_no": 999,
        "meta_rev_at_epoch": 98364,
        "meta_bstar": 0.00088880821,
        "meta_mean_motion_dot": 2.318e-05,
        "meta_mean_motion_ddot": 0,
        "tle_line1": "1 29784U 99025CA  25347.04136734  .00002318  00000+0  88881-3 0  9993",
        "tle_line2": "2 29784  98.9450 265.8472 0059397 296.5299  82.0448 14.30586128983640"
      },
      "geometry": {
        "type": "Point",
        "coordinates": [
          -77.68133662509679,
          -60.33986832779452
        ]
      }
    },
    {
      "type": "Feature",
      "properties": {
        "norad_id": 29786,
        "name": "FENGYUN 1C DEB",
        "group": "fengyun-1c-debris",
        "lat": -2.4961860078586726,
        "lon": -175.7426898410545,
        "alt_km": 892.1303360281636,
        "timestamp": "2025-12-13T10:41:26.037251+00:00",
        "meta_object_name": "FENGYUN 1C DEB",
        "meta_object_id": "1999-025CC",
        "meta_epoch": "2025-12-12T13:56:47.007168",
        "meta_mean_motion": 14.09084384,
        "meta_eccentricity": 0.00769863,
        "meta_inclination": 98.7359,
        "meta_ra_of_asc_node": 3.8034,
        "meta_arg_of_pericenter": 303.5107,
        "meta_mean_anomaly": 177.5721,
        "meta_ephemeris_type": 0,
        "meta_classification_type": "U",
        "meta_norad_cat_id": 29786,
        "meta_element_set_no": 999,
        "meta_rev_at_epoch": 97158,
        "meta_bstar": 0.00031221441,
        "meta_mean_motion_dot": 5.13e-06,
        "meta_mean_motion_ddot": 0,
        "tle_line1": "1 29786U 99025CC  25346.58109962  .00000513  00000+0  31221-3 0  9997",
        "tle_line2": "2 29786  98.7359   3.8034 0076986 303.5107 177.5721 14.09084384971589"
      },
      "geometry": {
        "type": "Point",
        "coordinates": [
          -175.7426898410545,
          -2.4961860078586726
        ]
      }
    },
    {
      "type": "Feature",
      "properties": {
        "norad_id": 29788,
        "name": "FENGYUN 1C DEB",
        "group": "fengyun-1c-debris",
        "lat": 19.557747557619923,
        "lon": -117.78070141955305,
        "alt_km": 777.6340389071947,
        "timestamp": "2025-12-13T10:41:26.037261+00:00",
        "meta_object_name": "FENGYUN 1C DEB",
        "meta_object_id": "1999-025CE",
        "meta_epoch": "2025-12-12T19:20:42.872064",
        "meta_mean_motion": 14.25974124,
        "meta_eccentricity": 0.00430875,
        "meta_inclination": 98.784,
        "meta_ra_of_asc_node": 58.4297,
        "meta_arg_of_pericenter": 188.8481,
        "meta_mean_anomaly": 291.0092,
        "meta_ephemeris_type": 0,
        "meta_classification_type": "U",
        "meta_norad_cat_id": 29788,
        "meta_element_set_no": 999,
        "meta_rev_at_epoch": 97356,
        "meta_bstar": 0.0025124136,
        "meta_mean_motion_dot": 6.011e-05,
        "meta_mean_motion_ddot": 0,
        "tle_line1": "1 29788U 99025CE  25346.80605176  .00006011  00000+0  25124-2 0  9995",
        "tle_line2": "2 29788  98.7840  58.4297 0043087 188.8481 291.0092 14.25974124973569"
      },
      "geometry": {
        "type": "Point",
        "coordinates": [
          -117.78070141955305,
          19.557747557619923
        ]
      }
    },
    {
      "type": "Feature",
      "properties": {
        "norad_id": 29789,
        "name": "FENGYUN 1C DEB",
        "group": "fengyun-1c-debris",
        "lat": 56.22445950825569,
        "lon": 4.629799072021058,
        "alt_km": 1250.1633005947715,
        "timestamp": "2025-12-13T10:41:26.037272+00:00",
        "meta_object_name": "FENGYUN 1C DEB",
        "meta_object_id": "1999-025CF",
        "meta_epoch": "2025-12-12T18:13:20.839872",
        "meta_mean_motion": 13.54240447,
        "meta_eccentricity": 0.02983278,
        "meta_inclination": 99.451,
        "meta_ra_of_asc_node": 169.5524,
        "meta_arg_of_pericenter": 278.7376,
        "meta_mean_anomaly": 101.7484,
        "meta_ephemeris_type": 0,
        "meta_classification_type": "U",
        "meta_norad_cat_id": 29789,
        "meta_element_set_no": 999,
        "meta_rev_at_epoch": 92988,
        "meta_bstar": 0.0019987716,
        "meta_mean_motion_dot": 1.761e-05,
        "meta_mean_motion_ddot": 0,
        "tle_line1": "1 29789U 99025CF  25346.75926898  .00001761  00000+0  19988-2 0  9995",
        "tle_line2": "2 29789  99.4510 169.5524 0298327 278.7376 101.7484 13.54240447929883"
      },
      "geometry": {
        "type": "Point",
        "coordinates": [
          4.629799072021058,
          56.22445950825569
        ]
      }
    }
  ]
}